QIANFAN-33              
1 61566U 24185Q   25290.94476367  .00000651  00000+0  46167-3 0  9996
2 61566  88.9749  85.0243 0008359 130.2561 229.9349 13.96477357 61373
QIANFAN-34              
1 61567U 24185R   25290.99614861  .00000736  00000+0  47228-3 0  9998
2 61567  88.9728  84.6560 0007339 131.7722 228.4087 14.02230154 61542
QIANFAN-35              
1 61568U 24185S   25290.98546885  .00001368  00000+0  54756-3 0  9994
2 61568  88.9756  83.4193 0008703 105.4047 254.8110 14.27823571 62221
QIANFAN-36              
1 61569U 24185T   25290.93864339  .00000194  00000+0  26184-3 0  9997
2 61569  88.9734  86.8541 0005648 187.8583 172.2483 13.55564799 60369
QIANFAN-37              
1 62238U 24232B   25290.92570677  .00000158  00000+0  22626-3 0  9999
2 62238  89.0021  46.9513 0001216 118.4373 241.6901 13.50971760 91639
QIANFAN-38              
1 62239U 24232C   25290.95036270  .00000157  00000+0  22512-3 0  9992
2 62239  89.0027  46.8608 0014113   3.6161 356.5090 13.50980161 91696
QIANFAN-39              
1 62240U 24232D   25290.96298590  .00000852  00000+0  35584-3 0  9995
2 62240  89.0024  43.6747 0014121 258.8435 101.1171 14.25294842 93447
QIANFAN-40              
1 62241U 24232E   25290.98325244  .00000162  00000+0  23294-3 0  9994
2 62241  89.0055  46.4264 0013389  12.1842 347.9630 13.50979772 92061
